[Satellite]
VERSION=1.1
NAME=TRANSIT 17
NICKNAME=TRANSIT 17
TLE1=1 02965U 67092A   15053.87690953  .00000105  00000-0  13906-3 0  9995
TLE2=2 02965  89.2529 324.4788 0048439 165.3452 278.6383 13.52769845337830
